QIANFAN-81              
1 63167U 25046J   26012.29915056  .00000192  00000+0  27791-3 0  9998
2 63167  88.9790 316.7129 0016367  37.0459 323.1819 13.51014860 51615
QIANFAN-82              
1 63168U 25046K   26012.25975268  .00000197  00000+0  28630-3 0  9994
2 63168  88.9790 316.7610 0014647  44.6682 315.5646 13.50987899 51592
QIANFAN-83              
1 63169U 25046L   26012.26098551  .00000259  00000+0  32071-3 0  9990
2 63169  88.9790 316.4774 0015604  29.8875 330.3170 13.61989822 51759
QIANFAN-84              
1 63170U 25046M   26012.28732043  .00000194  00000+0  28142-3 0  9997
2 63170  88.9790 316.8907 0017545  40.7389 319.5071 13.50997686 51520
QIANFAN-85              
1 63171U 25046N   26012.28430363  .00000192  00000+0  27884-3 0  9998
2 63171  88.9789 316.7627 0014989  43.4468 316.7861 13.50986682 51591
QIANFAN-86              
1 63172U 25046P   26012.29263259  .00000192  00000+0  27781-3 0  9994
2 63172  88.9792 316.6248 0012935  47.8039 312.4208 13.50988587 51678
QIANFAN-87              
1 63173U 25046Q   26012.26401227  .00000195  00000+0  28380-3 0  9990
2 63173  88.9788 316.7381 0013504  43.6260 316.5956 13.50986281 51603
QIANFAN-88              
1 63174U 25046R   26012.28019980  .00000204  00000+0  29760-3 0  9998
2 63174  88.9791 316.6918 0014027  50.3655 309.8732 13.50992453 51635
